[{"OBJECT_NAME":"STARLINK-6233","OBJECT_ID":"2023-094M","EPOCH":"2026-03-09T22:00:01.999584","MEAN_MOTION":15.14468056,"ECCENTRICITY":4.951e-5,"INCLINATION":43.0008,"RA_OF_ASC_NODE":28.6996,"ARG_OF_PERICENTER":290.179,"MEAN_ANOMALY":255.2112,"EPHEMERIS_TYPE":0,"CLASSIFICATION_TYPE":"U","NORAD_CAT_ID":57229,"ELEMENT_SET_NO":999,"REV_AT_EPOCH":577,"BSTAR":0.0040861784,"MEAN_MOTION_DOT":0.00077118,"MEAN_MOTION_DDOT":0},{"OBJECT_NAME":"AC1-001","OBJECT_ID":"2025-276CG","EPOCH":"2026-03-09T17:01:33.320352","MEAN_MOTION":15.17859032,"ECCENTRICITY":0.00029713,"INCLINATION":97.4276,"RA_OF_ASC_NODE":143.9133,"ARG_OF_PERICENTER":22.5153,"MEAN_ANOMALY":337.6211,"EPHEMERIS_TYPE":0,"CLASSIFICATION_TYPE":"U","NORAD_CAT_ID":66744,"ELEMENT_SET_NO":999,"REV_AT_EPOCH":1531,"BSTAR":0.00015685354,"MEAN_MOTION_DOT":3.109e-5,"MEAN_MOTION_DDOT":0}]
